1 25115U 97084D   15340.49063441  .00000548  00000-0  22568-3 0  9999,2 25115  45.0180 357.4106 0006221 331.1397  28.9107 14.38101298939878
1 25115U 97084D   15340.97691612 +.00000575 +00000-0 +23442-3 0  9991,2 25115 045.0180 355.1052 0006206 333.4004 026.6525 14.38102122939715
1 25115U 97084D   15341.88001039 +.00000577 +00000-0 +23528-3 0  9997,2 25115 045.0180 350.8239 0006175 337.8045 022.2535 14.38103385939841
1 25115U 97084D   15342.15788533  .00000575  00000-0  23458-3 0  9999,2 25115  45.0180 349.5065 0006162 339.1764  20.8833 14.38103783940111
1 25115U 97084D   15342.50522909 +.00000559 +00000-0 +22927-3 0  9993,2 25115 045.0180 347.8600 0006136 340.9320 019.1298 14.38104159939938
1 25115U 97084D   15343.40832229  .00000539  00000-0  22274-3 0  9995,2 25115  45.0179 343.5787 0006093 345.3582  14.7089 14.38105227940293
1 25115U 97084D   15343.96407147 +.00000473 +00000-0 +20122-3 0  9990,2 25115 045.0180 340.9440 0006070 348.0394 012.0310 14.38105629940146
1 25115U 97084D   15344.79769440  .00000629  00000-0  25224-3 0  9990,2 25115  45.0180 336.9921 0006014 352.1962   7.8792 14.38107707940493
1 25115U 97084D   15344.86716318 +.00000500 +00000-0 +21000-3 0  9990,2 25115 045.0180 336.6627 0006016 352.5422 007.5336 14.38107045940272
1 25115U 97084D   15345.83972240  .00000604  00000-0  24387-3 0  9992,2 25115  45.0179 332.0521 0005952 357.4218   2.6599 14.38109012940642
1 25115U 97084D   15345.90919093 +.00000582 +00000-0 +23696-3 0  9994,2 25115 045.0179 331.7228 0005949 357.7729 002.3092 14.38108981940423
1 25115U 97084D   15346.95121754 +.00000556 +00000-0 +22833-3 0  9992,2 25115 045.0178 326.7828 0005894 003.0927 356.9957 14.38110393940576
1 25115U 97084D   15347.09015431  .00000550  00000-0  22623-3 0  9993,2 25115  45.0179 326.1241 0005874   3.8322 356.2570 14.38110589940824
1 25115U 97084D   15347.92377444 +.00000557 +00000-0 +22859-3 0  9998,2 25115 045.0178 322.1720 0005820 008.0987 351.9954 14.38111940940714
1 25115U 97084D   15348.96579831 +.00000656 +00000-0 +26094-3 0  9992,2 25115 045.0177 317.2319 0005750 013.5686 346.5316 14.38114200940861
1 25115U 97084D   15349.93835263 +.00000704 +00000-0 +27649-3 0  9995,2 25115 045.0177 312.6211 0005695 018.7482 341.3575 14.38116125941005
1 25115U 97084D   15350.14675692  .00000706  00000-0  27731-3 0  9992,2 25115  45.0178 311.6332 0005688  19.9117 340.1953 14.38116523941266
1 25115U 97084D   15350.91090603 +.00000606 +00000-0 +24468-3 0  9993,2 25115 045.0177 308.0104 0005651 024.0198 336.0913 14.38117216941145
1 25115U 97084D   15351.18877830  .00000595  00000-0  24099-3 0  9995,2 25115  45.0177 306.6932 0005640  25.5834 334.5293 14.38117604941414
1 25115U 97084D   15351.95292624 +.00000604 +00000-0 +24397-3 0  9994,2 25115 045.0177 303.0704 0005605 029.7387 330.3779 14.38118950941296
1 25115U 97084D   15352.85600929  .00000685  00000-0  27048-3 0  9990,2 25115  45.0176 298.7891 0005570  34.6918 325.4293 14.38120921941655
1 25115U 97084D   15352.92547727 +.00000554 +00000-0 +22765-3 0  9990,2 25115 045.0176 298.4597 0005558 035.1127 325.0087 14.38120320941435
1 25115U 97084D   15353.89802694  .00000621  00000-0  24947-3 0  9993,2 25115  45.0176 293.8490 0005502  40.5712 319.5546 14.38122374941805
1 25115U 97084D   15354.87057550 +.00000560 +00000-0 +22970-3 0  9991,2 25115 045.0175 289.2383 0005462 046.0911 314.0387 14.38123729941719
1 25115U 97084D   15355.14844587  .00000684  00000-0  26991-3 0  9990,2 25115  45.0175 287.9211 0005455  47.6840 312.4470 14.38124991941980
1 25115U 97084D   15355.84312123 +.00000758 +00000-0 +29435-3 0  9991,2 25115 045.0174 284.6277 0005428 051.6308 308.5028 14.38126915941858
1 25115U 97084D   15356.19045935  .00000703  00000-0  27618-3 0  9995,2 25115  45.0174 282.9811 0005424  53.6562 306.4787 14.38127167942134
1 25115U 97084D   15356.88513440 +.00000699 +00000-0 +27509-3 0  9995,2 25115 045.0173 279.6877 0005398 057.6499 302.4872 14.38128447942000
1 25115U 97084D   15357.30193926  .00000711  00000-0  27877-3 0  9999,2 25115  45.0172 277.7118 0005400  60.0556 300.0829 14.38129256942298
1 25115U 97084D   15358.83022138  .00000664  00000-0  26335-3 0  9999,2 25115  45.0169 270.4661 0005371  69.0357 291.1066 14.38131877942512
1 25115U 97084D   15358.89968877 +.00000639 +00000-0 +25538-3 0  9990,2 25115 045.0169 270.1368 0005375 069.4522 290.6903 14.38131858942293
1 25115U 97084D   15359.87223068 +.00000514 +00000-0 +21461-3 0  9998,2 25115 045.0168 265.5259 0005375 075.1624 284.9820 14.38132916942432
1 25115U 97084D   15360.15009965  .00000484  00000-0  20461-3 0  9994,2 25115  45.0168 264.2087 0005382  76.7893 283.3555 14.38133219942705
1 25115U 97084D   15360.84477159 +.00000446 +00000-0 +19217-3 0  9999,2 25115 045.0167 260.9151 0005383 080.9031 279.2426 14.38134127942576
1 25115U 97084D   15361.74784472  .00000398  00000-0  17677-3 0  9992,2 25115  45.0166 256.6337 0005394  86.2176 273.9289 14.38135078942938
1 25115U 97084D   15361.88677912 +.00000346 +00000-0 +15949-3 0  9990,2 25115 045.0166 255.9750 0005402 087.0679 273.0788 14.38134938942722
1 25115U 97084D   15362.85931888 +.00000318 +00000-0 +15048-3 0  9992,2 25115 045.0165 251.3642 0005425 092.8170 267.3299 14.38135801942864
1 25115U 97084D   15363.06772022  .00000286  00000-0  14009-3 0  9999,2 25115  45.0165 250.3763 0005433  94.0320 266.1149 14.38135821943120
1 25115U 97084D   15363.90132512 +.00000253 +00000-0 +12918-3 0  9997,2 25115 045.0164 246.4241 0005459 098.9523 261.1944 14.38136431943016
1 25115U 97084D   15364.10972630  .00000244  00000-0  12645-3 0  9990,2 25115  45.0163 245.4362 0005471 100.1574 259.9892 14.38136572943275
1 25115U 97084D   15364.87386360 +.00000202 +00000-0 +11263-3 0  9992,2 25115 045.0162 241.8133 0005493 104.7086 255.4372 14.38137028943150
1 25115U 97084D   15365.15173167  .00000188  00000-0  10815-3 0  9998,2 25115  45.0161 240.4960 0005505 106.2773 253.8681 14.38137190943421
1 25115U 97084D   15365.91586833 +.00000252 +00000-0 +12885-3 0  9991,2 25115 045.0160 236.8732 0005536 110.7428 249.4014 14.38138207943305
1 25115U 97084D   16001.81893840  .00000230  00000-0  12161-3 0  9990,2 25115  45.0158 232.5917 0005583 115.9916 244.1507 14.38138873943668
1 25115U 97084D   16001.88840533 +.00000196 +00000-0 +11050-3 0  9995,2 25115 045.0158 232.2624 0005588 116.3879 243.7543 14.38138743943445
1 25115U 97084D   16002.86094174 +.00000215 +00000-0 +11671-3 0  9997,2 25115 045.0156 227.6515 0005640 121.9681 238.1716 14.38139616943587
1 25115U 97084D   16003.06934233  .00000220  00000-0  11832-3 0  9994,2 25115  45.0156 226.6635 0005661 123.1126 237.0266 14.38139806943848
1 25115U 97084D   16003.90294443 +.00000226 +00000-0 +12038-3 0  9994,2 25115 045.0155 222.7112 0005712 127.8910 232.2455 14.38140460943736
1 25115U 97084D   16004.11134489  .00000227  00000-0  12083-3 0  9992,2 25115  45.0154 221.7232 0005727 129.0342 231.1017 14.38140631943996
1 25115U 97084D   16004.94494637 +.00000242 +00000-0 +12559-3 0  9992,2 25115 045.0154 217.7709 0005788 133.7919 226.3409 14.38141369943887
1 25115U 97084D   16005.77854747  .00000232  00000-0  12237-3 0  9998,2 25115  45.0153 213.8185 0005850 138.4674 221.6619 14.38141992944234
1 25115U 97084D   16005.91748096 +.00000204 +00000-0 +11332-3 0  9997,2 25115 045.0153 213.1598 0005865 139.2356 220.8932 14.38141955944022
1 25115U 97084D   16006.82054809  .00000222  00000-0  11908-3 0  9999,2 25115  45.0153 208.8781 0005929 144.2336 215.8910 14.38142827944380
1 25115U 97084D   16006.89001482 +.00000204 +00000-0 +11307-3 0  9998,2 25115 045.0153 208.5488 0005939 144.6084 215.5159 14.38142775944166
1 25115U 97084D   16007.86254808  .00000205  00000-0  11349-3 0  9995,2 25115  45.0154 203.9378 0006019 149.9762 210.1432 14.38143559944532
1 25115U 97084D   16007.93201474 +.00000216 +00000-0 +11720-3 0  9999,2 25115 045.0153 203.6084 0006022 150.3168 209.8023 14.38143668944310
1 25115U 97084D   16008.90454744 +.00000221 +00000-0 +11884-3 0  9994,2 25115 045.0154 198.9975 0006101 155.5942 204.5196 14.38144411944456
1 25115U 97084D   16008.97401402  .00000226  00000-0  12025-3 0  9997,2 25115  45.0154 198.6681 0006106 155.9477 204.1658 14.38144495944696
1 25115U 97084D   16009.87707950 +.00000222 +00000-0 +11903-3 0  9994,2 25115 045.0154 194.3865 0006187 160.8246 199.2836 14.38145167944599
1 25115U 97084D   16010.50227833  .00000243  00000-0  12577-3 0  9994,2 25115  45.0153 191.4222 0006232 164.1695 195.9350 14.38145779944918
1 25115U 97084D   16010.91907723 +.00000254 +00000-0 +12965-3 0  9995,2 25115 045.0153 189.4461 0006284 166.4089 193.6929 14.38146266944749
1 25115U 97084D   16011.54427558  .00000267  00000-0  13363-3 0  9995,2 25115  45.0153 186.4818 0006333 169.6904 190.4075 14.38146883945066
1 25115U 97084D   16011.89160769 +.00000288 +00000-0 +14071-3 0  9991,2 25115 045.0153 184.8351 0006370 171.4954 188.6004 14.38147387944887
1 25115U 97084D   16012.86413741  .00000374  00000-0  16858-3 0  9991,2 25115  45.0154 180.2241 0006449 176.5166 183.5728 14.38148816945251
1 25115U 97084D   16013.83666641 +.00000392 +00000-0 +17439-3 0  9994,2 25115 045.0154 175.6130 0006538 181.5104 178.5726 14.38149891945169
1 25115U 97084D   16013.90613279  .00000363  00000-0  16506-3 0  9993,2 25115  45.0154 175.2836 0006543 181.8725 178.2100 14.38149800945406
1 25115U 97084D   16015.50385758  .00000366  00000-0  16592-3 0  9997,2 25115  45.0156 167.7082 0006687 190.0202 170.0514 14.38151371945638
1 25115U 97084D   16015.57332387 +.00000364 +00000-0 +16524-3 0  9997,2 25115 045.0156 167.3789 0006696 190.3854 169.6857 14.38151415945413
1 25115U 97084D   16015.85118895 +.00000368 +00000-0 +16664-3 0  9993,2 25115 045.0157 166.0615 0006718 191.7720 168.2972 14.38151688945459
1 25115U 97084D   16016.54585117  .00000360  00000-0  16409-3 0  9994,2 25115  45.0158 162.7679 0006787 195.3241 164.7403 14.38152352945782
1 25115U 97084D   16016.89318210 +.00000385 +00000-0 +17226-3 0  9995,2 25115 045.0158 161.1212 0006820 197.1195 162.9424 14.38152859945600
